STARLINK-31423          
1 59242U 24049M   26043.06157180  .00001265  00000+0  55488-4 0  9991
2 59242  43.0005 288.5261 0000729 320.9376  39.1422 15.27582709108484
STARLINK-31433          
1 59243U 24049N   26043.10125641  .00000173  00000+0  15795-4 0  9998
2 59243  42.9975 287.9652 0001709  33.1862 326.9097 15.27595413108490
STARLINK-31285          
1 59244U 24049P   26043.08583191  .00000517  00000+0  28319-4 0  9992
2 59244  43.0014 287.8471 0002238 244.7466 115.3154 15.27589431108489
STARLINK-31268          
1 59245U 24049Q   26043.25003472  .00087520  00000+0  11733-2 0  9990
2 59245  42.9899 274.9302 0022815 248.6768 188.3519 15.56671237  5793
STARLINK-31284          
1 59246U 24049R   26043.09741203 -.00003488  00000+0 -11725-3 0  9999
2 59246  42.9910 287.9414 0001808  37.2947 322.8030 15.27587911108482
STARLINK-31424          
1 59247U 24049S   26043.04148279 -.00000742  00000+0 -17410-4 0  9997
2 59247  43.0173 284.8926 0002968 251.4057 108.6473 15.27579434108516
STARLINK-31405          
1 59248U 24049T   26043.05386445 -.00000089  00000+0  63141-5 0  9994
2 59248  43.0037 288.4613 0001981 251.0901 108.9736 15.27575160108479
STARLINK-31426          
1 59249U 24049U   26043.05770383 -.00000525  00000+0 -95439-5 0  9994
2 59249  42.9999 288.4883 0001133 257.0016 103.0709 15.27593682108471
STARLINK-31407          
1 59250U 24049V   26043.04359652  .00002918  00000+0  11548-3 0  9990
2 59250  43.0002 277.1456 0000916 303.8544  56.2220 15.27589195108601
STARLINK-31393          
1 59252U 24049X   26043.05436232  .00000757  00000+0  37029-4 0  9995
2 59252  43.0033 273.7467 0001038 279.7350  80.3384 15.27576331108655
STARLINK-31425          
1 59253U 24049Y   26043.09354111  .00000921  00000+0  43002-4 0  9996
2 59253  43.0045 287.8994 0001159 274.2678  85.8041 15.27579804108486
STARLINK-31659          
1 59254U 24050A   26043.11508638 -.00002794  00000+0 -82343-4 0  9990
2 59254  53.1594 297.6121 0001334  77.9256 282.1894 15.30166691107818
STARLINK-31629          
1 59255U 24050B   26043.12299619  .00015432  00000+0  53324-3 0  9995
2 59255  53.1591 299.7926 0001445 102.8413 257.2750 15.30127667106631
STARLINK-31652          
1 59256U 24050C   26043.11031673  .00003255  00000+0  12196-3 0  9991
2 59256  53.1599 299.7147 0001284  88.2956 271.8192 15.30201710106639
STARLINK-31637          
1 59258U 24050E   26043.10399232  .00000956  00000+0  44411-4 0  9991
2 59258  53.1599 299.6718 0001107 111.3173 248.7946 15.30189062106632
STARLINK-31506          
1 59259U 24050F   26042.98918798  .00000047  00000+0  13714-4 0  9994
2 59259  53.1591 300.3782 0001069  84.1880 275.9243 15.30196244106615
