[{"OBJECT_NAME":"STARLINK-31423","OBJECT_ID":"2024-049M","EPOCH":"2026-02-12T01:28:39.803520","MEAN_MOTION":15.27582709,"ECCENTRICITY":7.298e-5,"INCLINATION":43.0005,"RA_OF_ASC_NODE":288.5261,"ARG_OF_PERICENTER":320.9376,"MEAN_ANOMALY":39.1422,"EPHEMERIS_TYPE":0,"CLASSIFICATION_TYPE":"U","NORAD_CAT_ID":59242,"ELEMENT_SET_NO":999,"REV_AT_EPOCH":10848,"BSTAR":5.5488262e-5,"MEAN_MOTION_DOT":1.265e-5,"MEAN_MOTION_DDOT":0},{"OBJECT_NAME":"STARLINK-31433","OBJECT_ID":"2024-049N","EPOCH":"2026-02-12T02:25:48.553824","MEAN_MOTION":15.27595413,"ECCENTRICITY":0.00017098,"INCLINATION":42.9975,"RA_OF_ASC_NODE":287.9652,"ARG_OF_PERICENTER":33.1862,"MEAN_ANOMALY":326.9097,"EPHEMERIS_TYPE":0,"CLASSIFICATION_TYPE":"U","NORAD_CAT_ID":59243,"ELEMENT_SET_NO":999,"REV_AT_EPOCH":10849,"BSTAR":1.579467e-5,"MEAN_MOTION_DOT":1.73e-6,"MEAN_MOTION_DDOT":0},{"OBJECT_NAME":"STARLINK-31285","OBJECT_ID":"2024-049P","EPOCH":"2026-02-12T02:03:35.877024","MEAN_MOTION":15.27589431,"ECCENTRICITY":0.00022389,"INCLINATION":43.0014,"RA_OF_ASC_NODE":287.8471,"ARG_OF_PERICENTER":244.7466,"MEAN_ANOMALY":115.3154,"EPHEMERIS_TYPE":0,"CLASSIFICATION_TYPE":"U","NORAD_CAT_ID":59244,"ELEMENT_SET_NO":999,"REV_AT_EPOCH":10848,"BSTAR":2.8319153e-5,"MEAN_MOTION_DOT":5.17e-6,"MEAN_MOTION_DDOT":0},{"OBJECT_NAME":"STARLINK-31268","OBJECT_ID":"2024-049Q","EPOCH":"2026-02-12T06:00:02.999808","MEAN_MOTION":15.56671237,"ECCENTRICITY":0.00228154,"INCLINATION":42.9899,"RA_OF_ASC_NODE":274.9302,"ARG_OF_PERICENTER":248.6768,"MEAN_ANOMALY":188.3519,"EPHEMERIS_TYPE":0,"CLASSIFICATION_TYPE":"U","NORAD_CAT_ID":59245,"ELEMENT_SET_NO":999,"REV_AT_EPOCH":579,"BSTAR":0.0011732672,"MEAN_MOTION_DOT":0.0008752,"MEAN_MOTION_DDOT":0},{"OBJECT_NAME":"STARLINK-31284","OBJECT_ID":"2024-049R","EPOCH":"2026-02-12T02:20:16.399392","MEAN_MOTION":15.27587911,"ECCENTRICITY":0.00018083,"INCLINATION":42.991,"RA_OF_ASC_NODE":287.9414,"ARG_OF_PERICENTER":37.2947,"MEAN_ANOMALY":322.803,"EPHEMERIS_TYPE":0,"CLASSIFICATION_TYPE":"U","NORAD_CAT_ID":59246,"ELEMENT_SET_NO":999,"REV_AT_EPOCH":10848,"BSTAR":-0.00011725102,"MEAN_MOTION_DOT":-3.488e-5,"MEAN_MOTION_DDOT":0},{"OBJECT_NAME":"STARLINK-31424","OBJECT_ID":"2024-049S","EPOCH":"2026-02-12T00:59:44.113056","MEAN_MOTION":15.27579434,"ECCENTRICITY":0.00029688,"INCLINATION":43.0173,"RA_OF_ASC_NODE":284.8926,"ARG_OF_PERICENTER":251.4057,"MEAN_ANOMALY":108.6473,"EPHEMERIS_TYPE":0,"CLASSIFICATION_TYPE":"U","NORAD_CAT_ID":59247,"ELEMENT_SET_NO":999,"REV_AT_EPOCH":10851,"BSTAR":-1.7410293e-5,"MEAN_MOTION_DOT":-7.42e-6,"MEAN_MOTION_DDOT":0},{"OBJECT_NAME":"STARLINK-31405","OBJECT_ID":"2024-049T","EPOCH":"2026-02-12T01:17:33.888480","MEAN_MOTION":15.2757516,"ECCENTRICITY":0.00019814,"INCLINATION":43.0037,"RA_OF_ASC_NODE":288.4613,"ARG_OF_PERICENTER":251.0901,"MEAN_ANOMALY":108.9736,"EPHEMERIS_TYPE":0,"CLASSIFICATION_TYPE":"U","NORAD_CAT_ID":59248,"ELEMENT_SET_NO":999,"REV_AT_EPOCH":10847,"BSTAR":6.314086e-6,"MEAN_MOTION_DOT":-8.9e-7,"MEAN_MOTION_DDOT":0},{"OBJECT_NAME":"STARLINK-31426","OBJECT_ID":"2024-049U","EPOCH":"2026-02-12T01:23:05.610912","MEAN_MOTION":15.27593682,"ECCENTRICITY":0.00011331,"INCLINATION":42.9999,"RA_OF_ASC_NODE":288.4883,"ARG_OF_PERICENTER":257.0016,"MEAN_ANOMALY":103.0709,"EPHEMERIS_TYPE":0,"CLASSIFICATION_TYPE":"U","NORAD_CAT_ID":59249,"ELEMENT_SET_NO":999,"REV_AT_EPOCH":10847,"BSTAR":-9.543937e-6,"MEAN_MOTION_DOT":-5.25e-6,"MEAN_MOTION_DDOT":0},{"OBJECT_NAME":"STARLINK-31407","OBJECT_ID":"2024-049V","EPOCH":"2026-02-12T01:02:46.739328","MEAN_MOTION":15.27589195,"ECCENTRICITY":9.163e-5,"INCLINATION":43.0002,"RA_OF_ASC_NODE":277.1456,"ARG_OF_PERICENTER":303.8544,"MEAN_ANOMALY":56.222,"EPHEMERIS_TYPE":0,"CLASSIFICATION_TYPE":"U","NORAD_CAT_ID":59250,"ELEMENT_SET_NO":999,"REV_AT_EPOCH":10860,"BSTAR":0.00011548286,"MEAN_MOTION_DOT":2.918e-5,"MEAN_MOTION_DDOT":0},{"OBJECT_NAME":"STARLINK-31393","OBJECT_ID":"2024-049X","EPOCH":"2026-02-12T01:18:16.904448","MEAN_MOTION":15.27576331,"ECCENTRICITY":0.00010385,"INCLINATION":43.0033,"RA_OF_ASC_NODE":273.7467,"ARG_OF_PERICENTER":279.735,"MEAN_ANOMALY":80.3384,"EPHEMERIS_TYPE":0,"CLASSIFICATION_TYPE":"U","NORAD_CAT_ID":59252,"ELEMENT_SET_NO":999,"REV_AT_EPOCH":10865,"BSTAR":3.7029284e-5,"MEAN_MOTION_DOT":7.57e-6,"MEAN_MOTION_DDOT":0},{"OBJECT_NAME":"STARLINK-31425","OBJECT_ID":"2024-049Y","EPOCH":"2026-02-12T02:14:41.951904","MEAN_MOTION":15.27579804,"ECCENTRICITY":0.00011598,"INCLINATION":43.0045,"RA_OF_ASC_NODE":287.8994,"ARG_OF_PERICENTER":274.2678,"MEAN_ANOMALY":85.8041,"EPHEMERIS_TYPE":0,"CLASSIFICATION_TYPE":"U","NORAD_CAT_ID":59253,"ELEMENT_SET_NO":999,"REV_AT_EPOCH":10848,"BSTAR":4.3001758e-5,"MEAN_MOTION_DOT":9.21e-6,"MEAN_MOTION_DDOT":0},{"OBJECT_NAME":"STARLINK-31659","OBJECT_ID":"2024-050A","EPOCH":"2026-02-12T02:45:43.463232","MEAN_MOTION":15.30166691,"ECCENTRICITY":0.00013348,"INCLINATION":53.1594,"RA_OF_ASC_NODE":297.6121,"ARG_OF_PERICENTER":77.9256,"MEAN_ANOMALY":282.1894,"EPHEMERIS_TYPE":0,"CLASSIFICATION_TYPE":"U","NORAD_CAT_ID":59254,"ELEMENT_SET_NO":999,"REV_AT_EPOCH":10781,"BSTAR":-8.2343049e-5,"MEAN_MOTION_DOT":-2.794e-5,"MEAN_MOTION_DDOT":0},{"OBJECT_NAME":"STARLINK-31629","OBJECT_ID":"2024-050B","EPOCH":"2026-02-12T02:57:06.870816","MEAN_MOTION":15.30127667,"ECCENTRICITY":0.00014451,"INCLINATION":53.1591,"RA_OF_ASC_NODE":299.7926,"ARG_OF_PERICENTER":102.8413,"MEAN_ANOMALY":257.275,"EPHEMERIS_TYPE":0,"CLASSIFICATION_TYPE":"U","NORAD_CAT_ID":59255,"ELEMENT_SET_NO":999,"REV_AT_EPOCH":10663,"BSTAR":0.00053324332,"MEAN_MOTION_DOT":0.00015432,"MEAN_MOTION_DDOT":0},{"OBJECT_NAME":"STARLINK-31652","OBJECT_ID":"2024-050C","EPOCH":"2026-02-12T02:38:51.365472","MEAN_MOTION":15.3020171,"ECCENTRICITY":0.00012843,"INCLINATION":53.1599,"RA_OF_ASC_NODE":299.7147,"ARG_OF_PERICENTER":88.2956,"MEAN_ANOMALY":271.8192,"EPHEMERIS_TYPE":0,"CLASSIFICATION_TYPE":"U","NORAD_CAT_ID":59256,"ELEMENT_SET_NO":999,"REV_AT_EPOCH":10663,"BSTAR":0.00012195523,"MEAN_MOTION_DOT":3.255e-5,"MEAN_MOTION_DDOT":0},{"OBJECT_NAME":"STARLINK-31637","OBJECT_ID":"2024-050E","EPOCH":"2026-02-12T02:29:44.936448","MEAN_MOTION":15.30189062,"ECCENTRICITY":0.00011077,"INCLINATION":53.1599,"RA_OF_ASC_NODE":299.6718,"ARG_OF_PERICENTER":111.3173,"MEAN_ANOMALY":248.7946,"EPHEMERIS_TYPE":0,"CLASSIFICATION_TYPE":"U","NORAD_CAT_ID":59258,"ELEMENT_SET_NO":999,"REV_AT_EPOCH":10663,"BSTAR":4.4411142e-5,"MEAN_MOTION_DOT":9.56e-6,"MEAN_MOTION_DDOT":0},{"OBJECT_NAME":"STARLINK-31506","OBJECT_ID":"2024-050F","EPOCH":"2026-02-11T23:44:25.841472","MEAN_MOTION":15.30196244,"ECCENTRICITY":0.00010696,"INCLINATION":53.1591,"RA_OF_ASC_NODE":300.3782,"ARG_OF_PERICENTER":84.188,"MEAN_ANOMALY":275.9243,"EPHEMERIS_TYPE":0,"CLASSIFICATION_TYPE":"U","NORAD_CAT_ID":59259,"ELEMENT_SET_NO":999,"REV_AT_EPOCH":10661,"BSTAR":1.3714164e-5,"MEAN_MOTION_DOT":4.7e-7,"MEAN_MOTION_DDOT":0}]
